{
  "links" : {
    "next" : "https://api.nasa.gov/neo/rest/v1/feed?start_date=1997-11-23&end_date=1997-11-23&detailed=true&api_key=t0TVs3DtDT2H8Oy2Zy8m2eVrNsAVKAexjcZXUckd",
    "prev" : "https://api.nasa.gov/neo/rest/v1/feed?start_date=1997-11-21&end_date=1997-11-21&detailed=true&api_key=t0TVs3DtDT2H8Oy2Zy8m2eVrNsAVKAexjcZXUckd",
    "self" : "https://api.nasa.gov/neo/rest/v1/feed?start_date=1997-11-22&end_date=1997-11-22&detailed=true&api_key=t0TVs3DtDT2H8Oy2Zy8m2eVrNsAVKAexjcZXUckd"
  },
  "element_count" : 5,
  "near_earth_objects" : {
    "1997-11-22" : [ {
      "links" : {
        "self" : "https://api.nasa.gov/neo/rest/v1/neo/2138852?api_key=t0TVs3DtDT2H8Oy2Zy8m2eVrNsAVKAexjcZXUckd"
      },
      "neo_reference_id" : "2138852",
      "name" : "138852 (2000 WN10)",
      "nasa_jpl_url" : "http://ssd.jpl.nasa.gov/sbdb.cgi?sstr=2138852",
      "absolute_magnitude_h" : 20.2,
      "estimated_diameter" : {
        "kilometers" : {
          "estimated_diameter_min" : 0.2424124811,
          "estimated_diameter_max" : 0.5420507863
        },
        "meters" : {
          "estimated_diameter_min" : 242.4124811008,
          "estimated_diameter_max" : 542.0507863358
        },
        "miles" : {
          "estimated_diameter_min" : 0.1506280858,
          "estimated_diameter_max" : 0.3368146392
        },
        "feet" : {
          "estimated_diameter_min" : 795.3165644948,
          "estimated_diameter_max" : 1778.3819018419
        }
      },
      "is_potentially_hazardous_asteroid" : false,
      "close_approach_data" : [ {
        "close_approach_date" : "1997-11-22",
        "epoch_date_close_approach" : 880185600000,
        "relative_velocity" : {
          "kilometers_per_second" : "12.0140680636",
          "kilometers_per_hour" : "43250.6450288178",
          "miles_per_hour" : "26874.2688513785"
        },
        "miss_distance" : {
          "astronomical" : "0.2416748249",
          "lunar" : "94.011505127",
          "kilometers" : "36154040",
          "miles" : "22465078"
        },
        "orbiting_body" : "Earth"
      } ],
      "orbital_data" : {
        "orbit_id" : "184",
        "orbit_determination_date" : "2017-04-06 09:27:44",
        "orbit_uncertainty" : "0",
        "minimum_orbit_intersection" : ".126152",
        "jupiter_tisserand_invariant" : "5.976",
        "epoch_osculation" : "2455791.5",
        "eccentricity" : ".2989783053263816",
        "semi_major_axis" : "1.001279870798668",
        "inclination" : "21.48186836899148",
        "ascending_node_longitude" : "60.96973558511647",
        "orbital_period" : "365.9583451042971",
        "perihelion_distance" : ".7019189118698638",
        "perihelion_argument" : "225.1315602381134",
        "aphelion_distance" : "1.300640829727472",
        "perihelion_time" : "2455783.871034707124",
        "mean_anomaly" : "7.504754413108508",
        "mean_motion" : ".9837185155523672",
        "equinox" : "J2000"
      }
    }, {
      "links" : {
        "self" : "https://api.nasa.gov/neo/rest/v1/neo/3653537?api_key=t0TVs3DtDT2H8Oy2Zy8m2eVrNsAVKAexjcZXUckd"
      },
      "neo_reference_id" : "3653537",
      "name" : "(2013 VO5)",
      "nasa_jpl_url" : "http://ssd.jpl.nasa.gov/sbdb.cgi?sstr=3653537",
      "absolute_magnitude_h" : 21.3,
      "estimated_diameter" : {
        "kilometers" : {
          "estimated_diameter_min" : 0.1460679643,
          "estimated_diameter_max" : 0.3266178974
        },
        "meters" : {
          "estimated_diameter_min" : 146.0679642714,
          "estimated_diameter_max" : 326.6178974458
        },
        "miles" : {
          "estimated_diameter_min" : 0.090762397,
          "estimated_diameter_max" : 0.2029508896
        },
        "feet" : {
          "estimated_diameter_min" : 479.2256199,
          "estimated_diameter_max" : 1071.581062656
        }
      },
      "is_potentially_hazardous_asteroid" : true,
      "close_approach_data" : [ {
        "close_approach_date" : "1997-11-22",
        "epoch_date_close_approach" : 880185600000,
        "relative_velocity" : {
          "kilometers_per_second" : "35.4017634995",
          "kilometers_per_hour" : "127446.3485980474",
          "miles_per_hour" : "79190.2047719367"
        },
        "miss_distance" : {
          "astronomical" : "0.3858011141",
          "lunar" : "150.0766296387",
          "kilometers" : "57715024",
          "miles" : "35862452"
        },
        "orbiting_body" : "Earth"
      } ],
      "orbital_data" : {
        "orbit_id" : "26",
        "orbit_determination_date" : "2017-04-06 08:43:47",
        "orbit_uncertainty" : "2",
        "minimum_orbit_intersection" : ".0179104",
        "jupiter_tisserand_invariant" : "4.783",
        "epoch_osculation" : "2458000.5",
        "eccentricity" : ".6907003888683497",
        "semi_major_axis" : "1.279656576823889",
        "inclination" : "2.017856740162087",
        "ascending_node_longitude" : "74.00881222955729",
        "orbital_period" : "528.7356290583903",
        "perihelion_distance" : ".3957972815936875",
        "perihelion_argument" : "211.0710848087156",
        "aphelion_distance" : "2.16351587205409",
        "perihelion_time" : "2458137.223244019495",
        "mean_anomaly" : "266.9093037390473",
        "mean_motion" : ".6808695692422192",
        "equinox" : "J2000"
      }
    }, {
      "links" : {
        "self" : "https://api.nasa.gov/neo/rest/v1/neo/3653699?api_key=t0TVs3DtDT2H8Oy2Zy8m2eVrNsAVKAexjcZXUckd"
      },
      "neo_reference_id" : "3653699",
      "name" : "(2013 VY13)",
      "nasa_jpl_url" : "http://ssd.jpl.nasa.gov/sbdb.cgi?sstr=3653699",
      "absolute_magnitude_h" : 21.2,
      "estimated_diameter" : {
        "kilometers" : {
          "estimated_diameter_min" : 0.1529519353,
          "estimated_diameter_max" : 0.3420109247
        },
        "meters" : {
          "estimated_diameter_min" : 152.9519353442,
          "estimated_diameter_max" : 342.0109247198
        },
        "miles" : {
          "estimated_diameter_min" : 0.095039897,
          "estimated_diameter_max" : 0.2125156703
        },
        "feet" : {
          "estimated_diameter_min" : 501.8108275547,
          "estimated_diameter_max" : 1122.0831222578
        }
      },
      "is_potentially_hazardous_asteroid" : true,
      "close_approach_data" : [ {
        "close_approach_date" : "1997-11-22",
        "epoch_date_close_approach" : 880185600000,
        "relative_velocity" : {
          "kilometers_per_second" : "18.6805604869",
          "kilometers_per_hour" : "67250.0177528947",
          "miles_per_hour" : "41786.5457531806"
        },
        "miss_distance" : {
          "astronomical" : "0.208309483",
          "lunar" : "81.0323867798",
          "kilometers" : "31162656",
          "miles" : "19363576"
        },
        "orbiting_body" : "Earth"
      } ],
      "orbital_data" : {
        "orbit_id" : "23",
        "orbit_determination_date" : "2017-04-06 08:43:38",
        "orbit_uncertainty" : "6",
        "minimum_orbit_intersection" : ".0427117",
        "jupiter_tisserand_invariant" : "3.990",
        "epoch_osculation" : "2458000.5",
        "eccentricity" : ".514366216432064",
        "semi_major_axis" : "1.731710865626246",
        "inclination" : "5.517703356359908",
        "ascending_node_longitude" : "261.2471457965653",
        "orbital_period" : "832.3605716193379",
        "perihelion_distance" : ".8409772997197794",
        "perihelion_argument" : "87.11060288394064",
        "aphelion_distance" : "2.622444431532713",
        "perihelion_time" : "2458223.341360129165",
        "mean_anomaly" : "263.6200267266051",
        "mean_motion" : ".4325048690132313",
        "equinox" : "J2000"
      }
    } ]
  }
}